ONEWEB-0142             
1 47288U 20100AG  24108.55711205  .00000509  00000+0  13788-2 0  9995
2 47288  87.8961 148.0385 0002364  97.6401 262.4996 13.12444242160968
ONEWEB-0143             
1 47289U 20100AH  24108.58649272 -.00000190  00000+0 -56449-3 0  9993
2 47289  87.8961 148.0520 0002028  94.0705 266.0655 13.12440117160942
ONEWEB-0144             
1 47290U 20100AJ  24108.55950595  .00000474  00000+0  12817-2 0  9998
2 47290  87.8962 148.0416 0002403 102.0398 258.1000 13.12441150160869
ONEWEB-0145             
1 47291U 20100AK  24108.60715362 -.00000299  00000+0 -86689-3 0  9992
2 47291  87.8962 148.0561 0002196  98.6769 261.4608 13.12442013161065
ONEWEB-0146             
1 47292U 20100AL  24108.60238461 -.00000373  00000+0 -10721-2 0  9999
2 47292  87.8962 148.0394 0001682  87.9587 272.1734 13.12442206160970
ONEWEB-0147             
1 47293U 20100AM  24108.56903255  .00000346  00000+0  92721-3 0  9994
2 47293  87.8959 148.0426 0002074 106.0411 254.0946 13.12439919160867
ONEWEB-0115             
1 48042U 21025A   24108.52814269 -.00000224  00000+0 -64833-3 0  9996
2 48042  87.8884 117.6323 0001807  89.4138 270.7198 13.13469765149806
ONEWEB-0152             
1 48043U 21025B   24108.54085261  .00000282  00000+0  73626-3 0  9993
2 48043  87.8891 117.6248 0001870  90.4770 269.6573 13.13468733149768
